SIRIUS-1                
1 26390U 00035A   09169.15210686 -.00000003  00000-0  10000-3 0  4962
2 26390  61.5351 255.3530 2733521 270.7721  58.5242  1.00277725 32850
SIRIUS-2                
1 26483U 00051A   09168.81500762  .00000146  00000-0  10000-3 0  1977
2 26483  63.7261 135.0435 2695957 268.8466  60.4790  1.00274660 32180
SIRIUS-3                
1 26626U 00077A   09167.48865169 -.00000130  00000-0  10000-3 0  4338
2 26626  64.0720  15.1456 2667648 269.9600  59.8033  1.00276473 31301
XM-2 (ROCK)             
1 26724U 01012A   09168.44388634 -.00000187  00000-0  00000-0 0  6139
2 26724   0.0502 272.4102 0000293 321.1252 106.8887  1.00271429 30296
XM-1 (ROLL)             
1 26761U 01018A   09168.44389623 -.00000188  00000-0  00000+0 0  3929
2 26761   0.0817 271.4134 0000229   3.8447  65.2311  1.00271109 29764
XM-3 (RHYTHM)           
1 28626U 05008A   09168.44389596 -.00000188  00000-0  00000+0 0  6038
2 28626   0.0032 145.9498 0000248 301.8893 252.7093  1.00270969 15803
XM-4 (BLUES)            
1 29520U 06049A   09169.42895068 -.00000007  00000-0  10000-3 0  3800
2 29520   0.0022 227.0623 0000690 302.5235 136.6585  1.00271950  9751
